{"type": "FeatureCollection", "features": [ {"type": "Feature", "properties": {"norad_id": 39778, "name": "IRIDIUM 33 DEB", "group": "iridium-33-debris", "lat": -53.69932427596552, "lon": 36.26693154253625, "alt_km": 717.9567045824288, "timestamp": "2025-12-17T09:00:17.533975+00:00", "meta": {"OBJECT_NAME": "IRIDIUM 33 DEB", "OBJECT_ID": "1997-051AAK", "EPOCH": "2025-12-16T10:07:58.845504", "MEAN_MOTION": 14.54289538, "ECCENTRICITY": 0.00075929, "INCLINATION": 86.3778, "RA_OF_ASC_NODE": 41.6274, "ARG_OF_PERICENTER": 30.956, "MEAN_ANOMALY": 329.2093, "EPHEMERIS_TYPE": 0, "CLASSIFICATION_TYPE": "U", "NORAD_CAT_ID": 39778, "ELEMENT_SET_NO": 999, "REV_AT_EPOCH": 60746, "BSTAR": 0.00058000444, "MEAN_MOTION_DOT": 2.48e-05, "MEAN_MOTION_DDOT": 0}, "tle": {"line1": "1 39778U 97051AAK 25350.42220886  .00002480  00000+0  58000-3 0  9992", "line2": "2 39778  86.3778  41.6274 0007592  30.9560 329.2093 14.54289538607465"}}, "geometry": {"type": "Point", "coordinates": [36.26693154253625, -53.69932427596552]}}, {"type": "Feature", "properties": {"norad_id": 39781, "name": "IRIDIUM 33 DEB", "group": "iridium-33-debris", "lat": -41.36018190126905, "lon": 79.27176737845905, "alt_km": 727.8465511414788, "timestamp": "2025-12-17T09:00:17.533985+00:00", "meta": {"OBJECT_NAME": "IRIDIUM 33 DEB", "OBJECT_ID": "1997-051AAN", "EPOCH": "2025-12-15T00:15:44.903232", "MEAN_MOTION": 14.2070789, "ECCENTRICITY": 0.01756389, "INCLINATION": 86.371, "RA_OF_ASC_NODE": 257.043, "ARG_OF_PERICENTER": 266.0338, "MEAN_ANOMALY": 111.7662, "EPHEMERIS_TYPE": 0, "CLASSIFICATION_TYPE": "U", "NORAD_CAT_ID": 39781, "ELEMENT_SET_NO": 999, "REV_AT_EPOCH": 8139, "BSTAR": 0.0031777078, "MEAN_MOTION_DOT": 8.021e-05, "MEAN_MOTION_DDOT": 0}, "tle": {"line1": "1 39781U 97051AAN 25349.01093638  .00008021  00000+0  31777-2 0  9990", "line2": "2 39781  86.3710 257.0430 0175638 266.0338 111.7662 14.20707890 81397"}}, "geometry": {"type": "Point", "coordinates": [79.27176737845905, -41.36018190126905]}}, {"type": "Feature", "properties": {"norad_id": 40996, "name": "IRIDIUM 33 DEB", "group": "iridium-33-debris", "lat": -33.36137217487624, "lon": -178.34788094267086, "alt_km": 591.6753747631792, "timestamp": "2025-12-17T09:00:17.533996+00:00", "meta": {"OBJECT_NAME": "IRIDIUM 33 DEB", "OBJECT_ID": "1997-051ABJ", "EPOCH": "2025-12-16T11:52:02.455968", "MEAN_MOTION": 14.96488968, "ECCENTRICITY": 0.00116474, "INCLINATION": 86.3523, "RA_OF_ASC_NODE": 359.6563, "ARG_OF_PERICENTER": 53.6369, "MEAN_ANOMALY": 97.9522, "EPHEMERIS_TYPE": 0, "CLASSIFICATION_TYPE": "U", "NORAD_CAT_ID": 40996, "ELEMENT_SET_NO": 999, "REV_AT_EPOCH": 62544, "BSTAR": 0.0019797945, "MEAN_MOTION_DOT": 0.00022579, "MEAN_MOTION_DDOT": 0}, "tle": {"line1": "1 40996U 97051ABJ 25350.49447287  .00022579  00000+0  19798-2 0  9990", "line2": "2 40996  86.3523 359.6563 0011647  53.6369  97.9522 14.96488968625443"}}, "geometry": {"type": "Point", "coordinates": [-178.34788094267086, -33.36137217487624]}}, {"type": "Feature", "properties": {"norad_id": 40998, "name": "IRIDIUM 33 DEB", "group": "iridium-33-debris", "lat": 6.682578817818928, "lon": -128.74860736423614, "alt_km": 745.2683647269832, "timestamp": "2025-12-17T09:00:17.534006+00:00", "meta": {"OBJECT_NAME": "IRIDIUM 33 DEB", "OBJECT_ID": "1997-051ABL", "EPOCH": "2025-12-14T22:36:58.178592", "MEAN_MOTION": 14.45106117, "ECCENTRICITY": 0.00094247, "INCLINATION": 86.383, "RA_OF_ASC_NODE": 52.7149, "ARG_OF_PERICENTER": 78.6428, "MEAN_ANOMALY": 45.8037, "EPHEMERIS_TYPE": 0, "CLASSIFICATION_TYPE": "U", "NORAD_CAT_ID": 40998, "ELEMENT_SET_NO": 999, "REV_AT_EPOCH": 6713, "BSTAR": 0.0004149731, "MEAN_MOTION_DOT": 1.471e-05, "MEAN_MOTION_DDOT": 0}, "tle": {"line1": "1 40998U 97051ABL 25348.94234003  .00001471  00000+0  41497-3 0  9999", "line2": "2 40998  86.3830  52.7149 0009424  78.6428  45.8037 14.45106117 67136"}}, "geometry": {"type": "Point", "coordinates": [-128.74860736423614, 6.682578817818928]}}, {"type": "Feature", "properties": {"norad_id": 46435, "name": "IRIDIUM 33 DEB", "group": "iridium-33-debris", "lat": -7.18239846049064, "lon": 12.424432171745364, "alt_km": 743.5833576303712, "timestamp": "2025-12-17T09:00:17.534016+00:00", "meta": {"OBJECT_NAME": "IRIDIUM 33 DEB", "OBJECT_ID": "1997-051ABN", "EPOCH": "2025-12-13T20:22:29.882208", "MEAN_MOTION": 14.32399442, "ECCENTRICITY": 0.0208315, "INCLINATION": 86.2839, "RA_OF_ASC_NODE": 193.4722, "ARG_OF_PERICENTER": 272.7642, "MEAN_ANOMALY": 103.0816, "EPHEMERIS_TYPE": 0, "CLASSIFICATION_TYPE": "U", "NORAD_CAT_ID": 46435, "ELEMENT_SET_NO": 999, "REV_AT_EPOCH": 7932, "BSTAR": 0.009141333, "MEAN_MOTION_DOT": 0.00031559, "MEAN_MOTION_DDOT": 0}, "tle": {"line1": "1 46435U 97051ABN 25347.84895697  .00031559  00000+0  91413-2 0  9993", "line2": "2 46435  86.2839 193.4722 0208315 272.7642 103.0816 14.32399442 79328"}}, "geometry": {"type": "Point", "coordinates": [12.424432171745364, -7.18239846049064]}}, {"type": "Feature", "properties": {"norad_id": 46734, "name": "IRIDIUM 33 DEB", "group": "iridium-33-debris", "lat": 1.5134749807201422, "lon": -179.26990934254002, "alt_km": 776.3441942878981, "timestamp": "2025-12-17T09:00:17.534026+00:00", "meta": {"OBJECT_NAME": "IRIDIUM 33 DEB", "OBJECT_ID": "1997-051ABR", "EPOCH": "2025-12-16T07:16:35.707584", "MEAN_MOTION": 14.41911222, "ECCENTRICITY": 0.00381217, "INCLINATION": 86.2633, "RA_OF_ASC_NODE": 1.2995, "ARG_OF_PERICENTER": 323.6514, "MEAN_ANOMALY": 53.8246, "EPHEMERIS_TYPE": 0, "CLASSIFICATION_TYPE": "U", "NORAD_CAT_ID": 46734, "ELEMENT_SET_NO": 999, "REV_AT_EPOCH": 63062, "BSTAR": 0.00075238, "MEAN_MOTION_DOT": 2.503e-05, "MEAN_MOTION_DDOT": 0}, "tle": {"line1": "1 46734U 97051ABR 25350.30319106  .00002503  00000+0  75238-3 0  9991", "line2": "2 46734  86.2633   1.2995 0038121 323.6514  53.8246 14.41911222630621"}}, "geometry": {"type": "Point", "coordinates": [-179.26990934254002, 1.5134749807201422]}}, {"type": "Feature", "properties": {"norad_id": 46965, "name": "IRIDIUM 33 DEB", "group": "iridium-33-debris", "lat": -81.99546648648483, "lon": -174.2483550248691, "alt_km": 692.0657155317394, "timestamp": "2025-12-17T09:00:17.534037+00:00", "meta": {"OBJECT_NAME": "IRIDIUM 33 DEB", "OBJECT_ID": "1997-051ABX", "EPOCH": "2025-12-13T10:45:20.165184", "MEAN_MOTION": 14.60307321, "ECCENTRICITY": 0.00180716, "INCLINATION": 86.336, "RA_OF_ASC_NODE": 340.3836, "ARG_OF_PERICENTER": 330.9129, "MEAN_ANOMALY": 180.178, "EPHEMERIS_TYPE": 0, "CLASSIFICATION_TYPE": "U", "NORAD_CAT_ID": 46965, "ELEMENT_SET_NO": 999, "REV_AT_EPOCH": 62278, "BSTAR": 0.0013493066, "MEAN_MOTION_DOT": 6.553e-05, "MEAN_MOTION_DDOT": 0}, "tle": {"line1": "1 46965U 97051ABX 25347.44815006  .00006553  00000+0  13493-2 0  9991", "line2": "2 46965  86.3360 340.3836 0018071 330.9129 180.1780 14.60307321622786"}}, "geometry": {"type": "Point", "coordinates": [-174.2483550248691, -81.99546648648483]}}, {"type": "Feature", "properties": {"norad_id": 46971, "name": "IRIDIUM 33 DEB", "group": "iridium-33-debris", "lat": -73.41548688511571, "lon": 163.35104173902855, "alt_km": 578.0181297486042, "timestamp": "2025-12-17T09:00:17.534047+00:00", "meta": {"OBJECT_NAME": "IRIDIUM 33 DEB", "OBJECT_ID": "1997-051ACD", "EPOCH": "2025-12-16T06:30:44.080992", "MEAN_MOTION": 14.9823489, "ECCENTRICITY": 0.00028594, "INCLINATION": 86.3389, "RA_OF_ASC_NODE": 331.4549, "ARG_OF_PERICENTER": 295.1976, "MEAN_ANOMALY": 128.6572, "EPHEMERIS_TYPE": 0, "CLASSIFICATION_TYPE": "U", "NORAD_CAT_ID": 46971, "ELEMENT_SET_NO": 999, "REV_AT_EPOCH": 64283, "BSTAR": 0.0019357039, "MEAN_MOTION_DOT": 0.00023062, "MEAN_MOTION_DDOT": 0}, "tle": {"line1": "1 46971U 97051ACD 25350.27134353  .00023062  00000+0  19357-2 0  9991", "line2": "2 46971  86.3389 331.4549 0002859 295.1976 128.6572 14.98234890642830"}}, "geometry": {"type": "Point", "coordinates": [163.35104173902855, -73.41548688511571]}}, {"type": "Feature", "properties": {"norad_id": 46974, "name": "IRIDIUM 33 DEB", "group": "iridium-33-debris", "lat": 72.42261740783948, "lon": 115.04363298270499, "alt_km": 746.7475955308782, "timestamp": "2025-12-17T09:00:17.534057+00:00", "meta": {"OBJECT_NAME": "IRIDIUM 33 DEB", "OBJECT_ID": "1997-051ACG", "EPOCH": "2025-12-14T14:09:41.074272", "MEAN_MOTION": 14.44439168, "ECCENTRICITY": 0.00956816, "INCLINATION": 86.2983, "RA_OF_ASC_NODE": 104.4675, "ARG_OF_PERICENTER": 181.0289, "MEAN_ANOMALY": 179.0732, "EPHEMERIS_TYPE": 0, "CLASSIFICATION_TYPE": "U", "NORAD_CAT_ID": 46974, "ELEMENT_SET_NO": 999, "REV_AT_EPOCH": 57535, "BSTAR": 0.0034715296, "MEAN_MOTION_DOT": 0.00012692, "MEAN_MOTION_DDOT": 0}, "tle": {"line1": "1 46974U 97051ACG 25348.59005873  .00012692  00000+0  34715-2 0  9992", "line2": "2 46974  86.2983 104.4675 0095681 181.0289 179.0732 14.44439168575351"}}, "geometry": {"type": "Point", "coordinates": [115.04363298270499, 72.42261740783948]}}, {"type": "Feature", "properties": {"norad_id": 46979, "name": "IRIDIUM 33 DEB", "group": "iridium-33-debris", "lat": 63.091408145911906, "lon": -140.8572924531525, "alt_km": 592.0275596243555, "timestamp": "2025-12-17T09:00:17.534068+00:00", "meta": {"OBJECT_NAME": "IRIDIUM 33 DEB", "OBJECT_ID": "1997-051ACM", "EPOCH": "2025-12-16T09:54:46.645632", "MEAN_MOTION": 14.89791601, "ECCENTRICITY": 0.00276719, "INCLINATION": 86.3345, "RA_OF_ASC_NODE": 46.8463, "ARG_OF_PERICENTER": 209.1234, "MEAN_ANOMALY": 150.8451, "EPHEMERIS_TYPE": 0, "CLASSIFICATION_TYPE": "U", "NORAD_CAT_ID": 46979, "ELEMENT_SET_NO": 999, "REV_AT_EPOCH": 35483, "BSTAR": 0.0025575323, "MEAN_MOTION_DOT": 0.00024787, "MEAN_MOTION_DDOT": 0}, "tle": {"line1": "1 46979U 97051ACM 25350.41303988  .00024787  00000+0  25575-2 0  9991", "line2": "2 46979  86.3345  46.8463 0027671 209.1234 150.8451 14.89791601354834"}}, "geometry": {"type": "Point", "coordinates": [-140.8572924531525, 63.091408145911906]}}]}